STARLINK-37184          
1 68393U 26063P   26105.28762208  .00134943  00000+0  69305-3 0  9994
2 68393  97.2831 246.8869 0001306  80.7434 279.3982 15.80858547  3408
STARLINK-37157          
1 68394U 26063Q   26105.24119492  .00114286  00000+0  75580-3 0  9992
2 68394  97.2845 246.7965 0001358  81.5620 278.5799 15.75223066  3394
STARLINK-37172          
1 68395U 26063R   26105.25002315 -.00020910  00000+0 -13972-3 0  9998
2 68395  97.2841 246.8262 0001482  75.0796  21.0769 15.75179428  4337
STARLINK-37190          
1 68396U 26063S   26105.15951962  .00168083  00000+0  85985-3 0  9994
2 68396  97.2831 246.7537 0001309  73.8923 286.2490 15.80856672  3386
STARLINK-37194          
1 68397U 26063T   26105.15801420  .00076775  00000+0  39777-3 0  9992
2 68397  97.2835 246.7564 0001346  73.9292 286.2124 15.80830440  3381
STARLINK-37220          
1 68398U 26063U   26105.15677696  .00207273  00000+0  10974-2 0  9995
2 68398  97.2830 246.7583 0001113  50.0650 310.0715 15.79996842  3383
STARLINK-37187          
1 68399U 26063V   26105.15726342  .00100902  00000+0  52074-3 0  9998
2 68399  97.2831 246.7572 0001400  75.7544 284.3879 15.80845608  3387
STARLINK-36235          
1 68400U 26063W   26105.15575979  .00112828  00000+0  58156-3 0  9996
2 68400  97.2832 246.7590 0001325  85.7769 274.3651 15.80839781  3389
STARLINK-37175          
1 68401U 26063X   26105.25002315 -.00034551  00000+0 -23172-3 0  9995
2 68401  97.2839 246.8358 0001279  83.5087  34.6422 15.75189152  4330
STARLINK-36360          
1 68402U 26063Y   26105.21755811  .00130237  00000+0  66929-3 0  9991
2 68402  97.2834 246.8282 0001446  76.2784 283.8645 15.80857712  3391
STARLINK-37218          
1 68403U 26063Z   26105.27935645  .00064101  00000+0  33259-3 0  9999
2 68403  97.2836 246.8984 0001565  84.8038 275.3409 15.80838549  3405
STARLINK-37188          
1 68404U 26063AA  26105.28010687  .00129697  00000+0  66648-3 0  9991
2 68404  97.2835 246.8968 0001327  81.5543 278.5876 15.80860332  3406
SHIYAN-33               
1 68405U 26064A   26105.26852700  .00002740  00000+0  11810-3 0  9991
2 68405  97.4646 181.1160 0014750 162.1153 198.0606 15.23333560  2918
LPNTSAT-001 (IOD-1)     
1 68408U 26065A   26105.14209443  .00001419  00000+0  72235-4 0  9993
2 68408  97.4109 346.9671 0015926 219.3825 140.6252 15.18324733  2691
LPNTSAT-002 (IOD-2)     
1 68409U 26065B   26105.14167872  .00003381  00000+0  16721-3 0  9990
2 68409  97.4097 346.9650 0013052 213.7934 146.2470 15.18430962  2676
