[{"OBJECT_NAME":"STARLINK-37184","OBJECT_ID":"2026-063P","EPOCH":"2026-04-15T06:54:10.547712","MEAN_MOTION":15.80858547,"ECCENTRICITY":0.00013066,"INCLINATION":97.2831,"RA_OF_ASC_NODE":246.8869,"ARG_OF_PERICENTER":80.7434,"MEAN_ANOMALY":279.3982,"EPHEMERIS_TYPE":0,"CLASSIFICATION_TYPE":"U","NORAD_CAT_ID":68393,"ELEMENT_SET_NO":999,"REV_AT_EPOCH":340,"BSTAR":0.00069304532,"MEAN_MOTION_DOT":0.00134943,"MEAN_MOTION_DDOT":0},{"OBJECT_NAME":"STARLINK-37157","OBJECT_ID":"2026-063Q","EPOCH":"2026-04-15T05:47:19.241088","MEAN_MOTION":15.75223066,"ECCENTRICITY":0.00013584,"INCLINATION":97.2845,"RA_OF_ASC_NODE":246.7965,"ARG_OF_PERICENTER":81.562,"MEAN_ANOMALY":278.5799,"EPHEMERIS_TYPE":0,"CLASSIFICATION_TYPE":"U","NORAD_CAT_ID":68394,"ELEMENT_SET_NO":999,"REV_AT_EPOCH":339,"BSTAR":0.00075579975,"MEAN_MOTION_DOT":0.00114286,"MEAN_MOTION_DDOT":0},{"OBJECT_NAME":"STARLINK-37172","OBJECT_ID":"2026-063R","EPOCH":"2026-04-15T06:00:02.000160","MEAN_MOTION":15.75179428,"ECCENTRICITY":0.00014826,"INCLINATION":97.2841,"RA_OF_ASC_NODE":246.8262,"ARG_OF_PERICENTER":75.0796,"MEAN_ANOMALY":21.0769,"EPHEMERIS_TYPE":0,"CLASSIFICATION_TYPE":"U","NORAD_CAT_ID":68395,"ELEMENT_SET_NO":999,"REV_AT_EPOCH":433,"BSTAR":-0.00013972462,"MEAN_MOTION_DOT":-0.0002091,"MEAN_MOTION_DDOT":0},{"OBJECT_NAME":"STARLINK-37190","OBJECT_ID":"2026-063S","EPOCH":"2026-04-15T03:49:42.495168","MEAN_MOTION":15.80856672,"ECCENTRICITY":0.00013097,"INCLINATION":97.2831,"RA_OF_ASC_NODE":246.7537,"ARG_OF_PERICENTER":73.8923,"MEAN_ANOMALY":286.249,"EPHEMERIS_TYPE":0,"CLASSIFICATION_TYPE":"U","NORAD_CAT_ID":68396,"ELEMENT_SET_NO":999,"REV_AT_EPOCH":338,"BSTAR":0.00085985146,"MEAN_MOTION_DOT":0.00168083,"MEAN_MOTION_DDOT":0},{"OBJECT_NAME":"STARLINK-37194","OBJECT_ID":"2026-063T","EPOCH":"2026-04-15T03:47:32.426880","MEAN_MOTION":15.8083044,"ECCENTRICITY":0.00013462,"INCLINATION":97.2835,"RA_OF_ASC_NODE":246.7564,"ARG_OF_PERICENTER":73.9292,"MEAN_ANOMALY":286.2124,"EPHEMERIS_TYPE":0,"CLASSIFICATION_TYPE":"U","NORAD_CAT_ID":68397,"ELEMENT_SET_NO":999,"REV_AT_EPOCH":338,"BSTAR":0.00039777471,"MEAN_MOTION_DOT":0.00076775,"MEAN_MOTION_DDOT":0},{"OBJECT_NAME":"STARLINK-37220","OBJECT_ID":"2026-063U","EPOCH":"2026-04-15T03:45:45.529344","MEAN_MOTION":15.79996842,"ECCENTRICITY":0.00011135,"INCLINATION":97.283,"RA_OF_ASC_NODE":246.7583,"ARG_OF_PERICENTER":50.065,"MEAN_ANOMALY":310.0715,"EPHEMERIS_TYPE":0,"CLASSIFICATION_TYPE":"U","NORAD_CAT_ID":68398,"ELEMENT_SET_NO":999,"REV_AT_EPOCH":338,"BSTAR":0.0010974017,"MEAN_MOTION_DOT":0.00207273,"MEAN_MOTION_DDOT":0},{"OBJECT_NAME":"STARLINK-37187","OBJECT_ID":"2026-063V","EPOCH":"2026-04-15T03:46:27.559488","MEAN_MOTION":15.80845608,"ECCENTRICITY":0.00014002,"INCLINATION":97.2831,"RA_OF_ASC_NODE":246.7572,"ARG_OF_PERICENTER":75.7544,"MEAN_ANOMALY":284.3879,"EPHEMERIS_TYPE":0,"CLASSIFICATION_TYPE":"U","NORAD_CAT_ID":68399,"ELEMENT_SET_NO":999,"REV_AT_EPOCH":338,"BSTAR":0.00052074097,"MEAN_MOTION_DOT":0.00100902,"MEAN_MOTION_DDOT":0},{"OBJECT_NAME":"STARLINK-36235","OBJECT_ID":"2026-063W","EPOCH":"2026-04-15T03:44:17.645856","MEAN_MOTION":15.80839781,"ECCENTRICITY":0.00013259,"INCLINATION":97.2832,"RA_OF_ASC_NODE":246.759,"ARG_OF_PERICENTER":85.7769,"MEAN_ANOMALY":274.3651,"EPHEMERIS_TYPE":0,"CLASSIFICATION_TYPE":"U","NORAD_CAT_ID":68400,"ELEMENT_SET_NO":999,"REV_AT_EPOCH":338,"BSTAR":0.00058155995,"MEAN_MOTION_DOT":0.00112828,"MEAN_MOTION_DDOT":0},{"OBJECT_NAME":"STARLINK-37175","OBJECT_ID":"2026-063X","EPOCH":"2026-04-15T06:00:02.000160","MEAN_MOTION":15.75189152,"ECCENTRICITY":0.00012798,"INCLINATION":97.2839,"RA_OF_ASC_NODE":246.8358,"ARG_OF_PERICENTER":83.5087,"MEAN_ANOMALY":34.6422,"EPHEMERIS_TYPE":0,"CLASSIFICATION_TYPE":"U","NORAD_CAT_ID":68401,"ELEMENT_SET_NO":999,"REV_AT_EPOCH":433,"BSTAR":-0.00023172278,"MEAN_MOTION_DOT":-0.00034551,"MEAN_MOTION_DDOT":0},{"OBJECT_NAME":"STARLINK-36360","OBJECT_ID":"2026-063Y","EPOCH":"2026-04-15T05:13:17.020704","MEAN_MOTION":15.80857712,"ECCENTRICITY":0.00014469,"INCLINATION":97.2834,"RA_OF_ASC_NODE":246.8282,"ARG_OF_PERICENTER":76.2784,"MEAN_ANOMALY":283.8645,"EPHEMERIS_TYPE":0,"CLASSIFICATION_TYPE":"U","NORAD_CAT_ID":68402,"ELEMENT_SET_NO":999,"REV_AT_EPOCH":339,"BSTAR":0.00066928741,"MEAN_MOTION_DOT":0.00130237,"MEAN_MOTION_DDOT":0},{"OBJECT_NAME":"STARLINK-37218","OBJECT_ID":"2026-063Z","EPOCH":"2026-04-15T06:42:16.397280","MEAN_MOTION":15.80838549,"ECCENTRICITY":0.0001565,"INCLINATION":97.2836,"RA_OF_ASC_NODE":246.8984,"ARG_OF_PERICENTER":84.8038,"MEAN_ANOMALY":275.3409,"EPHEMERIS_TYPE":0,"CLASSIFICATION_TYPE":"U","NORAD_CAT_ID":68403,"ELEMENT_SET_NO":999,"REV_AT_EPOCH":340,"BSTAR":0.00033258675,"MEAN_MOTION_DOT":0.00064101,"MEAN_MOTION_DDOT":0},{"OBJECT_NAME":"STARLINK-37188","OBJECT_ID":"2026-063AA","EPOCH":"2026-04-15T06:43:21.233568","MEAN_MOTION":15.80860332,"ECCENTRICITY":0.00013271,"INCLINATION":97.2835,"RA_OF_ASC_NODE":246.8968,"ARG_OF_PERICENTER":81.5543,"MEAN_ANOMALY":278.5876,"EPHEMERIS_TYPE":0,"CLASSIFICATION_TYPE":"U","NORAD_CAT_ID":68404,"ELEMENT_SET_NO":999,"REV_AT_EPOCH":340,"BSTAR":0.00066648043,"MEAN_MOTION_DOT":0.00129697,"MEAN_MOTION_DDOT":0},{"OBJECT_NAME":"SHIYAN-33","OBJECT_ID":"2026-064A","EPOCH":"2026-04-15T06:26:40.732800","MEAN_MOTION":15.2333356,"ECCENTRICITY":0.00147504,"INCLINATION":97.4646,"RA_OF_ASC_NODE":181.116,"ARG_OF_PERICENTER":162.1153,"MEAN_ANOMALY":198.0606,"EPHEMERIS_TYPE":0,"CLASSIFICATION_TYPE":"U","NORAD_CAT_ID":68405,"ELEMENT_SET_NO":999,"REV_AT_EPOCH":291,"BSTAR":0.00011809562,"MEAN_MOTION_DOT":2.74e-5,"MEAN_MOTION_DDOT":0},{"OBJECT_NAME":"LPNTSAT-001 (IOD-1)","OBJECT_ID":"2026-065A","EPOCH":"2026-04-15T03:24:36.958752","MEAN_MOTION":15.18324733,"ECCENTRICITY":0.00159264,"INCLINATION":97.4109,"RA_OF_ASC_NODE":346.9671,"ARG_OF_PERICENTER":219.3825,"MEAN_ANOMALY":140.6252,"EPHEMERIS_TYPE":0,"CLASSIFICATION_TYPE":"U","NORAD_CAT_ID":68408,"ELEMENT_SET_NO":999,"REV_AT_EPOCH":269,"BSTAR":7.2234655e-5,"MEAN_MOTION_DOT":1.419e-5,"MEAN_MOTION_DDOT":0},{"OBJECT_NAME":"LPNTSAT-002 (IOD-2)","OBJECT_ID":"2026-065B","EPOCH":"2026-04-15T03:24:01.041408","MEAN_MOTION":15.18430962,"ECCENTRICITY":0.00130521,"INCLINATION":97.4097,"RA_OF_ASC_NODE":346.965,"ARG_OF_PERICENTER":213.7934,"MEAN_ANOMALY":146.247,"EPHEMERIS_TYPE":0,"CLASSIFICATION_TYPE":"U","NORAD_CAT_ID":68409,"ELEMENT_SET_NO":999,"REV_AT_EPOCH":267,"BSTAR":0.00016721413,"MEAN_MOTION_DOT":3.381e-5,"MEAN_MOTION_DDOT":0}]
